SCD 1                   
1 22490U 93009B   19092.79451927  .00000208  00000-0  71193-5 0  9999
2 22490  24.9691 232.4209 0043162  45.5811 104.6841 14.44546404380070
TECHSAT 1B (GO-32)      
1 25397U 98043D   19092.80235038 -.00000032  00000-0  51806-5 0  9991
2 25397  98.6825  33.9061 0000207 220.9833 139.1330 14.23662633 76711
SCD 2                   
1 25504U 98060A   19092.41541493  .00000215  00000-0  98933-5 0  9996
2 25504  24.9956  82.0167 0017473  66.6481  90.8701 14.44064457 79606
LANDSAT 7               
1 25682U 99020A   19093.15729217 -.00000006  00000-0  85720-5 0  9993
2 25682  98.1353 162.3616 0001773  93.6725 266.4694 14.57148520 61976
DLR-TUBSAT              
1 25757U 99029B   19092.74338259 -.00000034  00000-0  28349-5 0  9996
2 25757  98.4120  14.7504 0015786  97.8159 262.4829 14.51399322 51423
TERRA                   
1 25994U 99068A   19093.10627571  .00000203  00000-0  55031-4 0  9995
2 25994  98.2097 168.7638 0001613 110.3453 249.7919 14.57112524 26048
MAROC-TUBSAT            
1 27004U 01056D   19092.96203458 -.00000048  00000-0 -45521-5 0  9999
2 27004  99.4498 227.9067 0020699  78.8866  30.1670 13.70133834865717
AQUA                    
1 27424U 02022A   19092.86581479  .00000025  00000-0  15616-4 0  9994
2 27424  98.2119  34.8912 0000695 295.3773 141.3182 14.57104302899568
IRS-P6 (RESOURCESAT-1)  
1 28051U 03046A   19093.14834749 -.00000009  00000-0  12282-4 0  9990
2 28051  98.5222 171.8935 0056545 255.0447 104.4478 14.34166124803137
SHIYAN 1 (SY-1)         
1 28220U 04012A   19092.85521893  .00000316  00000-0  30416-4 0  9991
2 28220  97.7934  55.0151 0014049  85.3386 274.9441 14.99793555814408
FORMOSAT-2 (ROCSAT 2)   
1 28254U 04018A   19093.14081331  .00000576  00000-0  41516-3 0  9995
2 28254  98.7703 140.4850 0002060 122.4395 298.2815 14.00669692760284
AURA                    
1 28376U 04026A   19092.85682778  .00000032  00000-0  17106-4 0  9994
2 28376  98.2129  37.0451 0001053  95.5109 264.6209 14.57101268782615
IRS-P5 (CARTOSAT-1)     
1 28649U 05017A   19093.16547814  .00000024  00000-0  92507-5 0  9994
2 28649  97.8612 165.0746 0003067  87.2002 272.9585 14.83626194753083
SINAH 1                 
1 28893U 05043D   19092.88802203  .00000001  00000-0  93435-5 0  9994
2 28893  97.9602 233.0672 0013990 248.8944 111.0762 14.61499472715827
EROS B                  
1 29079U 06014A   19093.14659902  .00001468  00000-0  64214-4 0  9996
2 29079  97.4095 212.8453 0004483  61.8444  57.4516 15.23634057718048
RESURS-DK 1             
1 29228U 06021A   19092.88707804  .00000057  00000-0  11620-4 0  9991
2 29228  69.9351 232.0028 0002545  19.7269 340.3990 15.02419496706423
ARIRANG-2 (KOMPSAT-2)   
1 29268U 06031A   19093.20325931  .00000073  00000-0  23613-4 0  9993
2 29268  98.0404 347.4687 0019277 105.0471 255.2871 14.62418172676721
LAPAN-TUBSAT            
1 29709U 07001A   19093.19823369  .00000019  00000-0  89318-5 0  9992
2 29709  97.7981  57.3484 0014241 109.0607 251.2149 14.82167125661000
CARTOSAT-2 (IRS-P7)     
1 29710U 07001B   19093.15235646  .00000275  00000-0  44647-4 0  9994
2 29710  97.9821 152.8736 0001556  97.7122 262.4268 14.78656364659981
HAIYANG-1B              
1 31113U 07010A   19093.11058199 -.00000001  00000-0  15921-4 0  9997
2 31113  98.4641 144.0371 0015012  77.5316 282.7546 14.30217418625087
COSMO-SKYMED 1          
1 31598U 07023A   19093.16127528  .00000273  00000-0  40891-4 0  9990
2 31598  97.8902 277.6117 0001481  87.4115 272.7244 14.82155121639460
TERRASAR-X              
1 31698U 07026A   19091.80092769  .00001855  00000-0  91486-4 0  9994
2 31698  97.4463 100.1265 0002122  89.9432  35.1767 15.19158069654109
WORLDVIEW-1 (WV-1)      
1 32060U 07041A   19093.15811852  .00000574  00000-0  26228-4 0  9996
2 32060  97.3915 213.8213 0002178  64.4288  34.4811 15.24496104642039
YAOGAN 3                
1 32289U 07055A   19093.17826854 -.00000192  00000-0 -18014-4 0  9996
2 32289  98.0063 103.9801 0001573  80.2488 279.8902 14.80946990615672
COSMO-SKYMED 2          
1 32376U 07059A   19093.12751092 -.00000311  00000-0 -32496-4 0  9996
2 32376  97.8905 277.5785 0001612  83.7160 276.4231 14.82148717612206
RADARSAT-2              
1 32382U 07061A   19093.18112166 -.00000021  00000-0  86181-5 0  9993
2 32382  98.5776 101.2070 0001383  88.1406  44.8013 14.29984113589908
CARTOSAT-2A             
1 32783U 08021A   19093.13077457  .00000159  00000-0  28773-4 0  9996
2 32783  97.9816 153.2247 0012810   3.5971 356.5351 14.78659312589923
JASON-2 (OSTM)          
1 33105U 08032A   19092.93099716 -.00000049  00000-0  53682-4 0  9992
2 33105  66.0411 185.5246 0008112 273.1678 207.0097 12.87630603504829
RAPIDEYE 2              
1 33312U 08040A   19093.17096729  .00000042  00000-0  12021-4 0  9993
2 33312  97.7519 164.4527 0013380  18.7726 341.3993 14.80757653572245
RAPIDEYE 5              
1 33313U 08040B   19093.05930166  .00000109  00000-0  20773-4 0  9990
2 33313  97.7604 163.1229 0016626 259.5802 100.3532 14.80742143572174
RAPIDEYE 1              
1 33314U 08040C   19093.11505934  .00000243  00000-0  38092-4 0  9991
2 33314  97.7527 164.1490 0024904  32.0260 328.2450 14.80755836572229
RAPIDEYE 3              
1 33315U 08040D   19093.08379680 -.00000015  00000-0  46597-5 0  9993
2 33315  97.7622 163.0278 0012730 335.9909  24.0719 14.80760513572189
RAPIDEYE 4              
1 33316U 08040E   19093.20662093 -.00000013  00000-0  48805-5 0  9993
2 33316  97.7652 162.9753 0011160 280.9598  79.0373 14.80759432572193
HUANJING 1A (HJ-1A)     
1 33320U 08041A   19093.11900163 -.00000031  00000-0  28041-5 0  9992
2 33320  97.8475 153.6558 0027124  68.7033 291.7078 14.77001219569454
HUANJING 1B (HJ-1B)     
1 33321U 08041B   19093.15332839  .00000100  00000-0  21237-4 0  9991
2 33321  97.8544 155.4822 0036218  86.6957 273.8404 14.77112033569455
GEOEYE 1                
1 33331U 08042A   19093.18771419  .00000052  00000-0  18797-4 0  9990
2 33331  98.1021 168.9326 0009543  15.5841 344.5667 14.64384889564955
THEOS                   
1 33396U 08049A   19093.16796230  .00000212  00000-0  12004-3 0  9996
2 33396  98.6926 161.5556 0001500  97.6137 346.8327 14.20046251544432
COSMO-SKYMED 3          
1 33412U 08054A   19093.11483812 -.00000306  00000-0 -31885-4 0  9990
2 33412  97.8903 277.5662 0001621  91.6349 268.5033 14.82152024564661
YAOGAN 4                
1 33446U 08061A   19092.90562196  .00000074  00000-0  17438-4 0  9992
2 33446  97.6663  63.8284 0015608 338.7150  21.3410 14.76938133556650
GOSAT (IBUKI)           
1 33492U 09002A   19092.91661226  .00000055  00000-0  18039-4 0  9991
2 33492  98.0247 206.7637 0001590  86.5235 273.6151 14.67572367545397
YAOGAN 6                
1 34839U 09021A   19093.09579665  .00000367  00000-0  16508-4 0  9998
2 34839  97.0619 121.1673 0029043 150.1271 210.1634 15.26486403552476
DEIMOS-1                
1 35681U 09041A   19093.20292215  .00000117  00000-0  26356-4 0  9997
2 35681  97.8742 337.5906 0002839  57.2528 302.8949 14.71778081519482
DUBAISAT-1              
1 35682U 09041B   19093.15947940  .00000201  00000-0  42314-4 0  9990
2 35682  97.7336 290.6715 0010610 214.7647 145.2842 14.68723747518346
OCEANSAT-2              
1 35931U 09051A   19092.85886902  .00000065  00000-0  27628-4 0  9993
2 35931  98.2975 189.0194 0001580  21.1646 338.9614 14.50863951504284
WORLDVIEW-2 (WV-2)      
1 35946U 09055A   19093.16033700  .00003732  00000-0  12566-2 0  9995
2 35946  98.4372 170.2412 0000276 140.0197 220.0691 14.37648828497614
SMOS                    
1 36036U 09059A   19092.94946344  .00000029  00000-0  23092-4 0  9996
2 36036  98.4449 281.3007 0001320  98.1122 262.0216 14.39768664494693
YAOGAN 7                
1 36110U 09069A   19093.17491528  .00000034  00000-0  13181-4 0  9999
2 36110  98.2681 274.3330 0023810 181.5668 178.5449 14.75104452501443
TANDEM-X                
1 36605U 10030A   19091.79381725  .00002329  00000-0  11402-3 0  9993
2 36605  97.4462 100.1194 0002104  92.8499 353.4140 15.19159889486844
CARTOSAT-2B             
1 36795U 10035A   19093.16753871 -.00000769  00000-0 -97738-4 0  9991
2 36795  97.9794 152.9256 0015838  71.3655 288.9433 14.78633114470971
YAOGAN 10               
1 36834U 10038A   19093.14736794  .00000016  00000-0  88966-5 0  9998
2 36834  97.9664  93.9326 0001612  69.7536 290.3851 14.80906805467416
COSMO-SKYMED 4          
1 37216U 10060A   19093.14441650  .00000003  00000-0  69757-5 0  9995
2 37216  97.8906 277.5953 0001603  81.7710 278.3682 14.82151977454758
RESOURCESAT-2           
1 37387U 11015A   19092.99082176 -.00008638  00000-0 -39216-2 0  9999
2 37387  98.7195 169.0239 0003685 197.0996 149.9110 14.21638233412704
HAIYANG 2A              
1 37781U 11043A   19092.36951891 -.00000037  00000-0  68912-5 0  9990
2 37781  99.3221 102.6480 0001924  87.6951 272.4438 13.78719303384127
RASAT                   
1 37791U 11044D   19093.21200147  .00000026  00000-0  14010-4 0  9994
2 37791  98.1156 187.1032 0020988 216.6633 143.3156 14.64710360407652
MEGHA-TROPIQUES         
1 37838U 11058A   19092.59188137  .00000285  00000-0  12022-4 0  9993
2 37838  19.9766 157.9556 0009824  38.9192 321.1919 14.09697123385556
SRMSAT                  
1 37841U 11058D   19092.55199319  .00000301  00000-0  20166-4 0  9994
2 37841  19.9711 137.7366 0012064  69.4444  57.7219 14.10627829385782
YAOGAN 13               
1 37941U 11072A   19093.17687075  .00000384  00000-0  22268-4 0  9997
2 37941  97.5224  25.4358 0002862 115.4667 357.6056 15.17917160407023
PLEIADES 1A             
1 38012U 11076F   19093.07649642 -.00000052  00000-0 -13193-5 0  9990
2 38012  98.2034 168.7828 0001758  82.6545 277.4856 14.58552235388326
ZIYUAN 1-02C (ZY 1-02C) 
1 38038U 11079A   19093.14173093  .00000038  00000-0  27651-4 0  9996
2 38038  98.2506 142.3094 0001241  65.9109 294.2217 14.35489162381467
